USA 271                 
1 41745U 16052B   20366.37667228 -.00000335  00000-0  00000+0 0  9994
2 41745   0.6518  91.9329 0001360 276.3776 351.6932  1.00361726  7949
INTELSAT 36 (IS-36)     
1 41747U 16053A   21012.81342392 -.00000029  00000-0  00000-0 0  9998
2 41747   0.0100  23.6741 0001808 356.2139  93.9329  1.00270815 16102
INTELSAT 33E (IS-33E)   
1 41748U 16053B   21013.25743602  .00000044  00000-0  00000+0 0  9992
2 41748   0.0155  17.8168 0001366 260.8080 346.9793  1.00270286 16350
INSAT-3DR               
1 41752U 16054A   21013.10161536 -.00000082  00000-0  00000+0 0  9995
2 41752   0.0743  95.6729 0012697 174.7701 312.8915  1.00271969 15937
GSAT-18                 
1 41793U 16060A   21012.88626604 -.00000082  00000-0  00000-0 0  9994
2 41793   0.0461  95.3400 0001634  92.7098 317.5619  1.00271432 15678
SKY MUSTER 2            
1 41794U 16060B   21012.90039830 -.00000250  00000-0  00000-0 0  9994
2 41794   0.0153 354.9716 0001326 301.7049 284.8428  1.00270521 15647
HIMAWARI-9              
1 41836U 16064A   21012.89961317 -.00000280  00000-0  00000-0 0  9990
2 41836   0.0131 337.6412 0000996  15.8951 223.6537  1.00271537 15323
SHIJIAN-17 (SJ-17)      
1 41838U 16065A   21013.63732819 -.00000370  00000-0  00000+0 0  9998
2 41838   0.7467  94.0136 0006097 327.5875  38.6685  1.00272158 15370
GOES 16                 
1 41866U 16071A   21013.57434760 -.00000254  00000-0  00000+0 0  9994
2 41866   0.0508 214.6291 0001179 116.6196 273.5708  1.00270657 15245
TIANLIAN 1-04           
1 41869U 16072A   21012.83497125  .00000025  00000-0  00000-0 0  9996
2 41869   0.1879 267.4782 0016863 185.7809 136.5653  1.00270919 15445
WGS F8 (USA 272)        
1 41879U 16075A   21012.90135789 -.00000208  00000-0  00000-0 0  9997
2 41879   0.0041  11.1325 0000221 192.6167  23.1527  1.00269224 14973
FENGYUN 4A              
1 41882U 16077A   21013.53840633 -.00000334  00000-0  00000+0 0  9993
2 41882   0.0271  37.8522 0005271  17.8671 355.8148  1.00264472 15126
ECHOSTAR 19             
1 41893U 16079A   21013.19224578 -.00000144  00000-0  00000+0 0  9992
2 41893   0.0167  51.1340 0001103 239.5765 154.2616  1.00271273 14875
JCSAT-15                
1 41903U 16082A   21012.91492774 -.00000356  00000-0  00000-0 0  9998
2 41903   0.0179  39.0610 0001130 259.0896 253.8722  1.00270392 14894
STAR ONE D1             
1 41904U 16082B   21013.48009132 -.00000217  00000-0  00000+0 0  9999
2 41904   0.0454 282.5523 0002218   7.5637 271.8647  1.00269784 14929
TJS-2                   
1 41911U 17001A   21013.46722170 -.00000348  00000-0  00000+0 0  9996
2 41911   0.2210 283.6447 0007575  39.9034  65.2651  1.00273579 14867
SBIRS GEO-4 (USA 273)   
1 41937U 17004A   21013.22476213  .00000129  00000-0  00000+0 0  9991
2 41937   3.3705 312.5757 0001402 333.6064 108.2682  1.00274763 14738
HISPASAT 36W-1          
1 41942U 17006A   21012.64891227 -.00000249  00000-0  00000-0 0  9995
2 41942   0.0086 344.6848 0001010 307.9048  17.3806  1.00272838 14366
TELKOM 3S               
1 41944U 17007A   21012.89507690 -.00000368  00000-0  00000-0 0  9995
2 41944   0.0149  29.4721 0001743 268.8708 254.4562  1.00269805 14270
INTELSAT 32E (IS-32E)   
1 41945U 17007B   21012.86288678 -.00000274  00000-0  00000-0 0  9991
2 41945   0.0172  43.9859 0000374  79.7726 256.2376  1.00269364 14361
ECHOSTAR 23             
1 42070U 17014A   21012.78620628 -.00000275  00000-0  00000-0 0  9996
2 42070   0.0036 111.4258 0002037 177.3758  38.7960  1.00270976 14062
WGS F9 (USA 275)        
1 42075U 17016A   21013.09821316  .00000068  00000-0  00000+0 0  9993
2 42075   0.0117  36.3108 0000487  79.1371  89.4365  1.00270043 14060
SES-10                  
1 42432U 17017A   21012.78629352 -.00000277  00000-0  00000-0 0  9996
2 42432   0.0094  55.8933 0002390 239.3020  33.4384  1.00269317 13879
CHINASAT 16 (SJ-13)     
1 42662U 17018A   21013.46783235 -.00000358  00000-0  00000+0 0  9998
2 42662   0.0597  79.6919 0006685 168.5228 143.8346  1.00266858 13886
KOREASAT 7              
1 42691U 17023A   21013.06785557 -.00000367  00000-0  00000+0 0  9991
2 42691   0.0177 350.8944 0001675 313.2776 308.8986  1.00268583 13571
SGDC                    
1 42692U 17023B   21011.89785985 -.00000252  00000-0  00000-0 0  9990
2 42692   0.0082  49.7775 0001981 246.6146  63.5667  1.00270560 13550
GSAT-9                  
1 42695U 17024A   21012.89088956 -.00000292  00000-0  00000-0 0  9993
2 42695   0.0353  96.3002 0002106 192.0774 242.2157  1.00271925 13440
INMARSAT 5-F4           
1 42698U 17025A   21013.09812591  .00000070  00000-0  00000+0 0  9992
2 42698   0.0031 121.9355 0000395  22.3603  60.2870  1.00268605 13391
SES-15                  
1 42709U 17026A   21012.68172983  .00000056  00000-0  00000-0 0  9999
2 42709   0.0129  34.7920 0000177 248.3694 305.4711  1.00268585 14283
QZS-2 (MICHIBIKI-2)     
1 42738U 17028A   21012.60068041 -.00000161  00000-0  00000+0 0  9991
2 42738  42.6419 271.4968 0755655 269.7120 288.1932  1.00280311 13260
VIASAT-2                
1 42740U 17029A   21013.35161160 -.00000271  00000-0  00000+0 0  9996
2 42740   0.0255 295.5743 0000246 153.6498  80.4732  1.00268754 13319
EUTELSAT 172B           
1 42741U 17029B   21013.38276728 -.00000012  00000-0  00000+0 0  9990
2 42741   0.0160 333.7825 0000324 164.9678 284.0919  1.00271004 13842
GSAT-19                 
1 42747U 17031A   21013.45527038  .00000119  00000-0  00000+0 0  9997
2 42747   0.0429 102.2421 0001999 319.8866 262.7808  1.00271427 13261
ECHOSTAR 21             
1 42749U 17032A   21013.07271556  .00000066  00000-0  00000+0 0  9990
2 42749   5.0730 311.8030 0001593 333.7487 223.6261  1.00271484 13252
CHINASAT 9A (ZX 9A)     
1 42763U 17035A   21013.10711124 -.00000318  00000-0  00000+0 0  9994
2 42763   0.0199  37.8060 0000595 256.3258 318.6241  1.00272418 13786
BULGARIASAT-1           
1 42801U 17038A   21012.80007682  .00000006  00000-0  00000-0 0  9997
2 42801   0.0118 324.1780 0002740 327.1978 111.0351  1.00270856 12950
HELLAS-SAT 3            
1 42814U 17040A   21012.90257516  .00000147  00000-0  00000-0 0  9994
2 42814   0.0436  10.5009 0003751 328.5205 137.5056  1.00274801 12979
GSAT-17                 
1 42815U 17040B   21013.39263486 -.00000264  00000-0  00000+0 0  9992
2 42815   0.0923 276.5316 0005691 345.5238  85.8830  1.00272711 13015
INTELSAT 35E (IS-35E)   
1 42818U 17041A   21013.24424267 -.00000243  00000-0  00000+0 0  9993
2 42818   0.0299 161.5521 0001598 137.0519 227.7356  1.00276906 12977
COSMOS 2520             
1 42907U 17046A   21012.90257516  .00000132  00000-0  00000-0 0  9997
2 42907   0.0276  97.5309 0001004 187.5433 197.4311  1.00272191 12538
TDRS 13                 
1 42915U 17047A   21012.72557311 -.00000098  00000-0  00000-0 0  9995
2 42915   5.2522 330.5553 0013179  93.4613 298.0605  1.00271606 12488
QZS-3 (MICHIBIKI-3)     
1 42917U 17048A   21012.93458049 -.00000354  00000-0  00000-0 0  9994
2 42917   0.0712 147.4289 0001087 178.4300 250.2420  1.00269439 12393
AMAZONAS 5              
1 42934U 17053A   21013.04868965 -.00000288  00000-0  00000+0 0  9999
2 42934   0.0311 335.0543 0004193 337.8048 116.3949  1.00270128 12267
ASIASAT 9               
1 42942U 17057A   21013.47010049 -.00000366  00000-0  00000+0 0  9998
2 42942   0.0083  38.0377 0002146 252.3776 114.0517  1.00268839 12084
INTELSAT 37E (IS-37E)   
1 42950U 17059A   21013.41299228 -.00000147  00000-0  00000+0 0  9998
2 42950   0.0170  22.2707 0002302 262.5522 318.9486  1.00269275 12184
BSAT-4A                 
1 42951U 17059B   21013.46765788 -.00000356  00000-0  00000+0 0  9995
2 42951   0.0485  43.1382 0002587 324.8677  23.3250  1.00271336 12090
QZS-4 (MICHIBIKI-4)     
1 42965U 17062A   21009.34266788 -.00000339  00000-0  00000-0 0  9994
2 42965  40.8323   8.8963 0750473 272.0013  86.5202  1.00247544 11915
SES-11 (ECHOSTAR 105)   
1 42967U 17063A   21013.18785161 -.00000095  00000-0  00000+0 0  9993
2 42967   0.0198  87.7173 0002300 206.4883 141.3240  1.00271523 11948
KOREASAT 5A             
1 42984U 17067A   21013.01785580 -.00000363  00000-0  00000+0 0  9991
2 42984   0.0228  90.7361 0001585 117.9349  23.6033  1.00271325 11763
ALCOMSAT 1              
1 43039U 17078A   21012.79484265 -.00000190  00000-0  00000-0 0  9994
2 43039   0.0507 159.4513 0002274 138.2449  76.1584  1.00271822 11418
SBIRS GEO-3 (USA 282)   
1 43162U 18009A   21013.25811684 -.00000291  00000-0  00000+0 0  9998
2 43162   4.5497 317.0553 0001591 328.1299  59.6704  1.00270669 10970
AL YAH 3                
1 43174U 18012A   21012.86751029 -.00000161  00000-0  00000-0 0  9994
2 43174   0.0151 340.4069 0001754 321.5366 102.7933  1.00269775 10987
SES-14                  
1 43175U 18012B   21013.29274956 -.00000284  00000-0  00000+0 0  9997
2 43175   0.0073   5.0517 0000752 293.3001 232.4895  1.00271088 11194
GOES 17                 
1 43226U 18022A   21013.16674424  .00000092  00000-0  00000+0 0  9991
2 43226   0.0107 236.1707 0000407 119.5525  39.9206  1.00270707 10578
HISPASAT 30W-6          
1 43228U 18023A   21012.79379583 -.00000221  00000-0  00000-0 0  9996
2 43228   0.0416  46.8225 0003209 284.7552  36.6504  1.00270041 10590
SUPERBIRD 8             
1 43271U 18033A   21013.37523186 -.00000098  00000-0  00000+0 0  9991
2 43271   0.0154  83.6603 0000882 193.8464 132.6330  1.00270875 10186
HYLAS 4                 
1 43272U 18033B   21013.08015528 -.00000239  00000-0  00000+0 0  9993
2 43272   0.0715 117.3963 0002238  76.0122 274.6697  1.00270377 10218
IRNSS-1I                
1 43286U 18035A   21012.81089410  .00000065  00000-0  00000-0 0  9998
2 43286  28.7664 105.9239 0021744 185.1951 168.3987  1.00277432 10206
USA 283                 
1 43339U 18036A   21013.59598122 -.00000323  00000-0  00000+0 0  9996
2 43339   0.0071 216.8048 0000289 160.8661  84.2430  1.00274051  5453
